IRIDIUM 8 [+]           
1 24792U 97020A   15360.55386730  .00000069  00000-0  17572-4 0  9995
2 24792  86.3964 183.8384 0002030  89.8793 270.2635 14.34220078975991
IRIDIUM 7 [+]           
1 24793U 97020B   15360.54751664  .00000038  00000-0  65926-5 0  9990
2 24793  86.3969 184.0947 0002002  90.2691 269.8734 14.34218214975990
IRIDIUM 6 [+]           
1 24794U 97020C   15360.47131798  .00000176  00000-0  55777-4 0  9998
2 24794  86.3967 184.0693 0001945  89.3060 270.8359 14.34212081975981
IRIDIUM 5 [+]           
1 24795U 97020D   15360.53483770  .00000040  00000-0  71169-5 0  9990
2 24795  86.3947 184.0923 0001886  92.8764 267.2647 14.34217042976073
IRIDIUM 4 [-]           
1 24796U 97020E   15360.51351355  .00000240  00000-0  77404-4 0  9991
2 24796  86.3961 183.3591 0002146  88.1318 328.1475 14.35026022976057
IRIDIUM 914 [-]         
1 24836U 97030A   15360.53048664  .00000237  00000-0  71042-4 0  9993
2 24836  86.3941 201.5341 0003716  83.9806 332.7030 14.38627589971506
IRIDIUM 12 [+]          
1 24837U 97030B   15360.55634109  .00000215  00000-0  69793-4 0  9997
2 24837  86.3963 215.2184 0002009  88.3469 299.3817 14.34221732969746
IRIDIUM 10 [+]          
1 24839U 97030D   15360.54993505  .00000227  00000-0  74129-4 0  9998
2 24839  86.3963 215.2043 0002013  87.2987 332.8773 14.34222467969751
IRIDIUM 13 [+]          
1 24840U 97030E   15360.56817745  .00000224  00000-0  72967-4 0  9998
2 24840  86.3965 215.3252 0002057  92.5726 323.5608 14.34222633969744
IRIDIUM 16 [-]          
1 24841U 97030F   15360.52566928  .00000248  00000-0  77753-4 0  9993
2 24841  86.4043 215.5514 0000692 181.6146 178.5049 14.36593068970244
IRIDIUM 911 [-]         
1 24842U 97030G   15360.53450397  .00000306  00000-0  82033-4 0  9999
2 24842  86.4472 216.6452 0016636  81.1500 340.9845 14.44790075975168
IRIDIUM 15 [+]          
1 24869U 97034A   15360.22096860  .00000304  00000-0  10156-3 0  9993
2 24869  86.3974 247.0714 0002006  84.7871  27.5417 14.34215309966667
IRIDIUM 17 [-]          
1 24870U 97034B   15360.22741765  .00000270  00000-0  86882-4 0  9998
2 24870  86.3979 245.9331 0002415 112.0117   1.2310 14.35616775966831
IRIDIUM 920 [-]         
1 24871U 97034C   15360.22545104  .00000254  00000-0  75261-4 0  9999
2 24871  86.3988 233.4211 0010436 321.5964 155.3382 14.39350732968823
IRIDIUM 18 [+]          
1 24872U 97034D   15360.30071141  .00000320  00000-0  10710-3 0  9995
2 24872  86.3976 247.2647 0001891  82.9581 277.1829 14.34214501966673
IRIDIUM 921 [-]         
1 24873U 97034E   15360.47832752  .00003226  00000-0  19805-3 0  9999
2 24873  86.3928 320.2897 0007428 179.9705 319.4581 15.09720013  6771
IRIDIUM 26 [-]          
1 24903U 97043A   15360.44277868  .00000248  00000-0  79883-4 0  9995
2 24903  86.3984 120.3746 0001888  92.0649 334.7463 14.35144627960705
IRIDIUM 25 [+]          
1 24904U 97043B   15360.38849550  .00000028  00000-0  29630-5 0  9994
2 24904  86.3979 120.7069 0001845  96.0625 264.0781 14.34211338960591
IRIDIUM 46 [+]          
1 24905U 97043C   15360.40117963  .00000275  00000-0  91000-4 0  9997
2 24905  86.3987 121.2057 0001999  93.7583 266.3842 14.34215245960607
IRIDIUM 23 [S]          
1 24906U 97043D   15360.47304161  .00000295  00000-0  98363-4 0  9994
2 24906  86.3991 120.6378 0001921  92.3059 311.3613 14.34216126960628
IRIDIUM 22 [+]          
1 24907U 97043E   15360.43922761  .00000288  00000-0  95681-4 0  9995
2 24907  86.3988 121.2917 0002009  95.9147 264.2277 14.34216264960609
DUMMY MASS 1 [-]        
1 24925U 97048A   15360.20638768  .00000246  00000-0  25507-4 0  9990
2 24925  86.3367 291.8542 0008550 133.9765 226.2165 14.85030609991593
DUMMY MASS 2 [-]        
1 24926U 97048B   15360.45642766  .00000265  00000-0  27896-4 0  9995
2 24926  86.3367 292.7663 0009133 140.3496 358.4990 14.84799922991491
IRIDIUM 29 [-]          
1 24944U 97051A   15360.50024358  .00000238  00000-0  77417-4 0  9990
2 24944  86.3973 152.2134 0002332  90.3234 269.8229 14.34530139957192
IRIDIUM 32 [+]          
1 24945U 97051B   15360.46798660  .00000108  00000-0  31673-4 0  9990
2 24945  86.3972 152.3224 0002024  91.3858 268.7570 14.34221073957207
IRIDIUM 33 [-]          
1 24946U 97051C   15360.52677359  .00000198  00000-0  64712-4 0  9998
2 24946  86.3887 152.1964 0007569 183.2955 243.6341 14.33449532956871
IRIDIUM 28 [-]          
1 24948U 97051E   15360.51546627  .00000242  00000-0  77603-4 0  9995
2 24948  86.3977 151.7443 0001718  96.6803 304.8979 14.35430881957304
IRIDIUM 30 [+]          
1 24949U 97051F   15360.53142137  .00000034  00000-0  51794-5 0  9999
2 24949  86.3975 152.3834 0001963  89.8348 270.3073 14.34209982957198
IRIDIUM 31 [+]          
1 24950U 97051G   15360.52507302  .00000123  00000-0  37013-4 0  9995
2 24950  86.3973 152.3867 0002117  94.4287 265.7150 14.34211275957204
IRIDIUM 19 [+]          
1 24965U 97056A   15360.50948470  .00000064  00000-0  15787-4 0  9997
2 24965  86.3965 183.8644 0002012  90.4415 269.7011 14.34219518955347
IRIDIUM 35 [+]          
1 24966U 97056B   15360.52215213  .00000071  00000-0  18418-4 0  9994
2 24966  86.3964 183.8569 0001988  89.9708 270.1715 14.34220316955325
IRIDIUM 36 [-]          
1 24967U 97056C   15360.54133791  .00000262  00000-0  84224-4 0  9997
2 24967  86.3976 183.3247 0002216  92.7379 319.6780 14.35477644955597
IRIDIUM 37 [+]          
1 24968U 97056D   15360.56654907  .00000021  00000-0  48010-6 0  9995
2 24968  86.3966 184.0090 0002048  89.8458 270.2972 14.34217682955339
IRIDIUM 34 [+]          
1 24969U 97056E   15360.51581544  .00000079  00000-0  21042-4 0  9994
2 24969  86.3965 183.9676 0002031  91.6011 268.5417 14.34219839955324
IRIDIUM 43 [+]          
1 25039U 97069A   15360.50367174  .00000336  00000-0  11310-3 0  9999
2 25039  86.3982 247.0992 0002082  87.8218 272.3216 14.34213828949108
IRIDIUM 41 [+]          
1 25040U 97069B   15360.24019851  .00000307  00000-0  10274-3 0  9994
2 25040  86.3975 247.1785 0001835  81.8408  31.5321 14.34213543949064
IRIDIUM 40 [+]          
1 25041U 97069C   15360.52270359  .00000351  00000-0  11814-3 0  9998
2 25041  86.3978 247.2858 0002876  98.5624 261.5898 14.34215006949128
IRIDIUM 39 [+]          
1 25042U 97069D   15360.11041513  .00000346  00000-0  11648-3 0  9991
2 25042  86.3994 247.5021 0001810  79.4999 280.6400 14.34221912949047
IRIDIUM 38 [-]          
1 25043U 97069E   15360.24275255  .00000267  00000-0  85175-4 0  9997
2 25043  86.3977 244.9992 0001071 110.1230   4.9599 14.35896635949392
IRIDIUM 42 [-]          
1 25077U 97077A   15360.54184554  .00000246  00000-0  80333-4 0  9995
2 25077  86.3979 247.0821 0001888  90.0614 270.0798 14.34438123944973
IRIDIUM 44 [-]          
1 25078U 97077B   15360.51820890  .00000293  00000-0  90562-4 0  9990
2 25078  86.3975 237.9922 0001100 141.2855 267.5498 14.37970373946222
IRIDIUM 45 [+]          
1 25104U 97082A   15360.51873714  .00000225  00000-0  73187-4 0  9998
2 25104  86.3972 152.4355 0000609 123.0890 237.0364 14.34211360943165
IRIDIUM 24 [-]          
1 25105U 97082B   15360.44086839  .00000299  00000-0  89336-4 0  9999
2 25105  86.3943 102.9608 0010248 327.3954  83.5451 14.39712964945349
IRIDIUM 47 [+]          
1 25106U 97082C   15360.47735690  .00000302  00000-0  10087-3 0  9990
2 25106  86.3976 120.5585 0001970  91.6969 268.4452 14.34208619943159
IRIDIUM 49 [+]          
1 25108U 97082E   15360.49887231  .00000284  00000-0  94195-4 0  9995
2 25108  86.3978 120.6378 0001966  94.0941 311.9720 14.34216115943169
IRIDIUM 52 [+]          
1 25169U 98010A   15360.51926456  .00000207  00000-0  66976-4 0  9991
2 25169  86.3967 215.5040 0002025  88.2951 271.8476 14.34218100934570
IRIDIUM 56 [+]          
1 25170U 98010B   15360.51290379  .00000042  00000-0  78469-5 0  9999
2 25170  86.3964 215.6104 0001737  84.4534 275.6860 14.34218748934550
IRIDIUM 54 [+]          
1 25171U 98010C   15360.54464103  .00000211  00000-0  68429-4 0  9993
2 25171  86.3968 215.5116 0002032  88.2486 271.8943 14.34222494934726
IRIDIUM 50 [+]          
1 25172U 98010D   15360.18030941  .00000218  00000-0  70703-4 0  9998
2 25172  86.3968 215.6230 0002087  86.7076  29.8502 14.34221733934506
IRIDIUM 53 [+]          
1 25173U 98010E   15360.53754060  .00000205  00000-0  66151-4 0  9991
2 25173  86.3968 215.4796 0002043  88.5486 333.1339 14.34222354934564
IRIDIUM 51 [S]          
1 25262U 98018A   15360.47140865 -.00000013  00000-0 -11586-4 0  9994
2 25262  86.3961 184.1588 0002028  82.6918 277.4508 14.34218179933944
IRIDIUM 61 [+]          
1 25263U 98018B   15360.50312888  .00000070  00000-0  17864-4 0  9991
2 25263  86.3966 184.0021 0002004  89.5834 270.5591 14.34219739929650
IRIDIUM 55 [+]          
1 25272U 98019A   15360.50604704  .00000006  00000-0 -49773-5 0  9998
2 25272  86.3972 152.2186 0001983  91.9293 268.2130 14.34211225928853
IRIDIUM 57 [+]          
1 25273U 98019B   15360.48067992  .00000117  00000-0  34600-4 0  9992
2 25273  86.3975 152.5124 0002000  91.6911 268.4514 14.34220825928851
IRIDIUM 58 [+]          
1 25274U 98019C   15359.92886387  .00000111  00000-0  32662-4 0  9997
2 25274  86.3977 152.9247 0001973  89.9979 270.1443 14.34221222928770
IRIDIUM 59 [+]          
1 25275U 98019D   15360.49338067  .00000106  00000-0  30806-4 0  9991
2 25275  86.3973 152.5714 0002102  90.9916 269.1520 14.34219942928859
IRIDIUM 60 [+]          
1 25276U 98019E   15360.36016751  .00000119  00000-0  35457-4 0  9992
2 25276  86.3968 152.2675 0001987  92.4194 267.7229 14.34220926928834
IRIDIUM 62 [+]          
1 25285U 98021A   15359.83328696  .00000364  00000-0  12305-3 0  9997
2 25285  86.3976  89.4024 0002056  94.3332 265.8099 14.34219004927710
IRIDIUM 63 [-]          
1 25286U 98021B   15360.41069412  .00000212  00000-0  68252-4 0  9997
2 25286  86.4004  89.5325 0002321  91.6660 314.1594 14.34542499927803
IRIDIUM 64 [+]          
1 25287U 98021C   15360.40411410  .00000362  00000-0  12219-3 0  9993
2 25287  86.3977  89.2017 0002124 101.4903 258.6532 14.34220068927773
